{
  "type": "FeatureCollection",
  "features": [
    {
      "type": "Feature",
      "properties": {
        "norad_id": 34022,
        "name": "COSMOS 2251 DEB",
        "group": "cosmos-2251-debris",
        "lat": 64.66121992394265,
        "lon": -32.82326521550647,
        "alt_km": 750.7065595953263,
        "timestamp": "2025-12-02T07:10:09.509772+00:00",
        "meta_object_name": "COSMOS 2251 DEB",
        "meta_object_id": "1993-036HH",
        "meta_epoch": "2025-12-01T08:11:26.596320",
        "meta_mean_motion": 14.38932897,
        "meta_eccentricity": 0.00222738,
        "meta_inclination": 74.0537,
        "meta_ra_of_asc_node": 291.7974,
        "meta_arg_of_pericenter": 358.9786,
        "meta_mean_anomaly": 153.1689,
        "meta_ephemeris_type": 0,
        "meta_classification_type": "U",
        "meta_norad_cat_id": 34022,
        "meta_element_set_no": 999,
        "meta_rev_at_epoch": 88031,
        "meta_bstar": 0.00030279048,
        "meta_mean_motion_dot": 9.1e-06,
        "meta_mean_motion_ddot": 0,
        "tle_line1": "1 34022U 93036HH  25335.34128005  .00000910  00000+0  30279-3 0  9996",
        "tle_line2": "2 34022  74.0537 291.7974 0022273 358.9786 153.1689 14.38932897880317"
      },
      "geometry": {
        "type": "Point",
        "coordinates": [
          -32.82326521550647,
          64.66121992394265
        ]
      }
    },
    {
      "type": "Feature",
      "properties": {
        "norad_id": 34023,
        "name": "COSMOS 2251 DEB",
        "group": "cosmos-2251-debris",
        "lat": -65.23580732800029,
        "lon": -127.32276950596109,
        "alt_km": 761.2610868822949,
        "timestamp": "2025-12-02T07:10:09.509782+00:00",
        "meta_object_name": "COSMOS 2251 DEB",
        "meta_object_id": "1993-036HJ",
        "meta_epoch": "2025-12-01T13:58:17.168160",
        "meta_mean_motion": 14.40517459,
        "meta_eccentricity": 0.00179877,
        "meta_inclination": 74.0248,
        "meta_ra_of_asc_node": 272.3906,
        "meta_arg_of_pericenter": 10.064,
        "meta_mean_anomaly": 164.7693,
        "meta_ephemeris_type": 0,
        "meta_classification_type": "U",
        "meta_norad_cat_id": 34023,
        "meta_element_set_no": 999,
        "meta_rev_at_epoch": 88053,
        "meta_bstar": 0.00040874034,
        "meta_mean_motion_dot": 1.277e-05,
        "meta_mean_motion_ddot": 0,
        "tle_line1": "1 34023U 93036HJ  25335.58214315  .00001277  00000+0  40874-3 0  9992",
        "tle_line2": "2 34023  74.0248 272.3906 0017987  10.0640 164.7693 14.40517459880531"
      },
      "geometry": {
        "type": "Point",
        "coordinates": [
          -127.32276950596109,
          -65.23580732800029
        ]
      }
    },
    {
      "type": "Feature",
      "properties": {
        "norad_id": 34024,
        "name": "COSMOS 2251 DEB",
        "group": "cosmos-2251-debris",
        "lat": 44.83659759777787,
        "lon": 138.6071484649392,
        "alt_km": 773.1542546308774,
        "timestamp": "2025-12-02T07:10:09.509791+00:00",
        "meta_object_name": "COSMOS 2251 DEB",
        "meta_object_id": "1993-036HK",
        "meta_epoch": "2025-12-01T11:11:14.623872",
        "meta_mean_motion": 14.35375319,
        "meta_eccentricity": 0.00205302,
        "meta_inclination": 74.0462,
        "meta_ra_of_asc_node": 336.6573,
        "meta_arg_of_pericenter": 30.464,
        "meta_mean_anomaly": 121.5627,
        "meta_ephemeris_type": 0,
        "meta_classification_type": "U",
        "meta_norad_cat_id": 34024,
        "meta_element_set_no": 999,
        "meta_rev_at_epoch": 87862,
        "meta_bstar": 0.00022666806,
        "meta_mean_motion_dot": 6.26e-06,
        "meta_mean_motion_ddot": 0,
        "tle_line1": "1 34024U 93036HK  25335.46614148  .00000626  00000+0  22667-3 0  9995",
        "tle_line2": "2 34024  74.0462 336.6573 0020530  30.4640 121.5627 14.35375319878624"
      },
      "geometry": {
        "type": "Point",
        "coordinates": [
          138.6071484649392,
          44.83659759777787
        ]
      }
    },
    {
      "type": "Feature",
      "properties": {
        "norad_id": 34026,
        "name": "COSMOS 2251 DEB",
        "group": "cosmos-2251-debris",
        "lat": 50.05602242095359,
        "lon": 154.29273281144143,
        "alt_km": 1044.2820219410523,
        "timestamp": "2025-12-02T07:10:09.509802+00:00",
        "meta_object_name": "COSMOS 2251 DEB",
        "meta_object_id": "1993-036HM",
        "meta_epoch": "2025-12-01T04:29:57.890976",
        "meta_mean_motion": 13.65270678,
        "meta_eccentricity": 0.0351318,
        "meta_inclination": 73.7675,
        "meta_ra_of_asc_node": 356.4967,
        "meta_arg_of_pericenter": 228.1788,
        "meta_mean_anomaly": 203.0254,
        "meta_ephemeris_type": 0,
        "meta_classification_type": "U",
        "meta_norad_cat_id": 34026,
        "meta_element_set_no": 999,
        "meta_rev_at_epoch": 83374,
        "meta_bstar": 0.0011624,
        "meta_mean_motion_dot": 1.415e-05,
        "meta_mean_motion_ddot": 0,
        "tle_line1": "1 34026U 93036HM  25335.18747559  .00001415  00000+0  11624-2 0  9996",
        "tle_line2": "2 34026  73.7675 356.4967 0351318 228.1788 203.0254 13.65270678833745"
      },
      "geometry": {
        "type": "Point",
        "coordinates": [
          154.29273281144143,
          50.05602242095359
        ]
      }
    },
    {
      "type": "Feature",
      "properties": {
        "norad_id": 34028,
        "name": "COSMOS 2251 DEB",
        "group": "cosmos-2251-debris",
        "lat": 18.825528082889033,
        "lon": 8.915299335569026,
        "alt_km": 1391.0655839483834,
        "timestamp": "2025-12-02T07:10:09.509812+00:00",
        "meta_object_name": "COSMOS 2251 DEB",
        "meta_object_id": "1993-036HP",
        "meta_epoch": "2025-12-01T11:39:14.122368",
        "meta_mean_motion": 13.20614712,
        "meta_eccentricity": 0.0544245,
        "meta_inclination": 73.884,
        "meta_ra_of_asc_node": 4.505,
        "meta_arg_of_pericenter": 144.2693,
        "meta_mean_anomaly": 336.3311,
        "meta_ephemeris_type": 0,
        "meta_classification_type": "U",
        "meta_norad_cat_id": 34028,
        "meta_element_set_no": 999,
        "meta_rev_at_epoch": 80859,
        "meta_bstar": 0.00031282971,
        "meta_mean_motion_dot": 2.59e-06,
        "meta_mean_motion_ddot": 0,
        "tle_line1": "1 34028U 93036HP  25335.48558012  .00000259  00000+0  31283-3 0  9994",
        "tle_line2": "2 34028  73.8840   4.5050 0544245 144.2693 336.3311 13.20614712808593"
      },
      "geometry": {
        "type": "Point",
        "coordinates": [
          8.915299335569026,
          18.825528082889033
        ]
      }
    },
    {
      "type": "Feature",
      "properties": {
        "norad_id": 34031,
        "name": "COSMOS 2251 DEB",
        "group": "cosmos-2251-debris",
        "lat": 46.913656796963075,
        "lon": -42.20416632341119,
        "alt_km": 703.7658494094048,
        "timestamp": "2025-12-02T07:10:09.509823+00:00",
        "meta_object_name": "COSMOS 2251 DEB",
        "meta_object_id": "1993-036HS",
        "meta_epoch": "2025-12-01T16:18:49.349376",
        "meta_mean_motion": 14.59474758,
        "meta_eccentricity": 0.0022935,
        "meta_inclination": 74.012,
        "meta_ra_of_asc_node": 156.8274,
        "meta_arg_of_pericenter": 277.5842,
        "meta_mean_anomaly": 202.1723,
        "meta_ephemeris_type": 0,
        "meta_classification_type": "U",
        "meta_norad_cat_id": 34031,
        "meta_element_set_no": 999,
        "meta_rev_at_epoch": 88404,
        "meta_bstar": 0.0011722,
        "meta_mean_motion_dot": 5.556e-05,
        "meta_mean_motion_ddot": 0,
        "tle_line1": "1 34031U 93036HS  25335.67973784  .00005556  00000+0  11722-2 0  9996",
        "tle_line2": "2 34031  74.0120 156.8274 0022935 277.5842 202.1723 14.59474758884041"
      },
      "geometry": {
        "type": "Point",
        "coordinates": [
          -42.20416632341119,
          46.913656796963075
        ]
      }
    },
    {
      "type": "Feature",
      "properties": {
        "norad_id": 34035,
        "name": "COSMOS 2251 DEB",
        "group": "cosmos-2251-debris",
        "lat": -42.409577102249536,
        "lon": -156.10142174918448,
        "alt_km": 752.8279006811736,
        "timestamp": "2025-12-02T07:10:09.509834+00:00",
        "meta_object_name": "COSMOS 2251 DEB",
        "meta_object_id": "1993-036HW",
        "meta_epoch": "2025-12-01T12:37:52.001184",
        "meta_mean_motion": 14.517264,
        "meta_eccentricity": 0.00439808,
        "meta_inclination": 74.0664,
        "meta_ra_of_asc_node": 10.2235,
        "meta_arg_of_pericenter": 14.5761,
        "meta_mean_anomaly": 134.9182,
        "meta_ephemeris_type": 0,
        "meta_classification_type": "U",
        "meta_norad_cat_id": 34035,
        "meta_element_set_no": 999,
        "meta_rev_at_epoch": 87803,
        "meta_bstar": 0.0015926333,
        "meta_mean_motion_dot": 6.455e-05,
        "meta_mean_motion_ddot": 0,
        "tle_line1": "1 34035U 93036HW  25335.52629631  .00006455  00000+0  15926-2 0  9992",
        "tle_line2": "2 34035  74.0664  10.2235 0043980  14.5761 134.9182 14.51726400878039"
      },
      "geometry": {
        "type": "Point",
        "coordinates": [
          -156.10142174918448,
          -42.409577102249536
        ]
      }
    }
  ]
}